{
  "norad_id": 54161,
  "name": "STARLINK-5269",
  "history": [
    {
      "epoch": "2026-03-28T19:39:23.359104Z",
      "apogee_km": 540.7273084732924,
      "perigee_km": 538.8021947738507,
      "latitude_deg": 3.4931723447590105e-05,
      "longitude_deg": 167.26989717377606,
      "height_km": 540.6734672452776,
      "semi_major_axis_km": 6917.901751623572,
      "eccentricity": 0.00013914,
      "inclination_deg": 53.2179,
      "raan_deg": 288.3512,
      "arg_perigee_deg": 90.7743,
      "mean_anomaly_deg": 269.3409,
      "mean_motion_rev_day": 15.08833011
    },
    {
      "epoch": "2026-03-29T06:47:05.152128Z",
      "apogee_km": 540.693605020424,
      "perigee_km": 538.7961683765398,
      "latitude_deg": -2.2844616635276464e-05,
      "longitude_deg": -2.1927053594034676,
      "height_km": 540.6334566916566,
      "semi_major_axis_km": 6917.881886698481,
      "eccentricity": 0.00013714,
      "inclination_deg": 53.218,
      "raan_deg": 286.2698,
      "arg_perigee_deg": 89.5659,
      "mean_anomaly_deg": 270.549,
      "mean_motion_rev_day": 15.0883951
    },
    {
      "epoch": "2026-03-30T12:59:23.812512Z",
      "apogee_km": 540.5863436062727,
      "perigee_km": 538.8098435542415,
      "latitude_deg": -9.82281609418858e-06,
      "longitude_deg": -102.16132909289875,
      "height_km": 540.5541620956242,
      "semi_major_axis_km": 6917.835093580257,
      "eccentricity": 0.0001284,
      "inclination_deg": 53.2179,
      "raan_deg": 280.6194,
      "arg_perigee_deg": 87.4315,
      "mean_anomaly_deg": 272.6824,
      "mean_motion_rev_day": 15.08854819
    },
    {
      "epoch": "2026-03-30T22:31:43.389696Z",
      "apogee_km": 540.6963299607996,
      "perigee_km": 538.8300188517478,
      "latitude_deg": 3.9843500570821004e-05,
      "longitude_deg": 112.58119327068783,
      "height_km": 540.6126763507716,
      "semi_major_axis_km": 6917.900174406273,
      "eccentricity": 0.00013489,
      "inclination_deg": 53.2179,
      "raan_deg": 278.8352,
      "arg_perigee_deg": 87.158,
      "mean_anomaly_deg": 272.9567,
      "mean_motion_rev_day": 15.08833527
    }
  ]
}